{"type": "FeatureCollection", "features": [ {"type": "Feature", "properties": {"norad_id": 31041, "name": "FENGYUN 1C DEB", "group": "fengyun-1c-debris", "lat": -2.2767946595483455, "lon": -169.73323128617642, "alt_km": 890.8275252176591, "timestamp": "2025-12-08T03:50:07.277274+00:00", "meta": {"OBJECT_NAME": "FENGYUN 1C DEB", "OBJECT_ID": "1999-025BEK", "EPOCH": "2025-12-03T21:20:58.441056", "MEAN_MOTION": 14.17711562, "ECCENTRICITY": 0.008667, "INCLINATION": 99.2055, "RA_OF_ASC_NODE": 6.2126, "ARG_OF_PERICENTER": 345.7803, "MEAN_ANOMALY": 14.0932, "EPHEMERIS_TYPE": 0, "CLASSIFICATION_TYPE": "U", "NORAD_CAT_ID": 31041, "ELEMENT_SET_NO": 999, "REV_AT_EPOCH": 95364, "BSTAR": 0.0041162, "MEAN_MOTION_DOT": 8.662e-05, "MEAN_MOTION_DDOT": 0}, "tle": {"line1": "1 31041U 99025BEK 25337.88956529  .00008662  00000+0  41162-2 0  9993", "line2": "2 31041  99.2055   6.2126 0086670 345.7803  14.0932 14.17711562953646"}}, "geometry": {"type": "Point", "coordinates": [-169.73323128617642, -2.2767946595483455]}}, {"type": "Feature", "properties": {"norad_id": 31043, "name": "FENGYUN 1C DEB", "group": "fengyun-1c-debris", "lat": -14.280695087726832, "lon": 2.3498041058212564, "alt_km": 843.6302603032782, "timestamp": "2025-12-08T03:50:07.277284+00:00", "meta": {"OBJECT_NAME": "FENGYUN 1C DEB", "OBJECT_ID": "1999-025BEM", "EPOCH": "2025-12-07T07:29:45.236832", "MEAN_MOTION": 14.08416094, "ECCENTRICITY": 0.00415819, "INCLINATION": 98.7646, "RA_OF_ASC_NODE": 359.276, "ARG_OF_PERICENTER": 19.5542, "MEAN_ANOMALY": 351.7826, "EPHEMERIS_TYPE": 0, "CLASSIFICATION_TYPE": "U", "NORAD_CAT_ID": 31043, "ELEMENT_SET_NO": 999, "REV_AT_EPOCH": 95911, "BSTAR": 0.00071786708, "MEAN_MOTION_DOT": 1.197e-05, "MEAN_MOTION_DDOT": 0}, "tle": {"line1": "1 31043U 99025BEM 25341.31232913  .00001197  00000+0  71787-3 0  9995", "line2": "2 31043  98.7646 359.2760 0041581  19.5542 351.7826 14.08416094959114"}}, "geometry": {"type": "Point", "coordinates": [2.3498041058212564, -14.280695087726832]}}, {"type": "Feature", "properties": {"norad_id": 31046, "name": "FENGYUN 1C DEB", "group": "fengyun-1c-debris", "lat": -25.179929560530052, "lon": 105.70358261273726, "alt_km": 714.2592182898943, "timestamp": "2025-12-08T03:50:07.277294+00:00", "meta": {"OBJECT_NAME": "FENGYUN 1C DEB", "OBJECT_ID": "1999-025BEQ", "EPOCH": "2025-12-06T19:37:50.898144", "MEAN_MOTION": 14.63391802, "ECCENTRICITY": 0.00475214, "INCLINATION": 98.968, "RA_OF_ASC_NODE": 99.9876, "ARG_OF_PERICENTER": 121.9334, "MEAN_ANOMALY": 347.6507, "EPHEMERIS_TYPE": 0, "CLASSIFICATION_TYPE": "U", "NORAD_CAT_ID": 31046, "ELEMENT_SET_NO": 999, "REV_AT_EPOCH": 96556, "BSTAR": 0.0080613082, "MEAN_MOTION_DOT": 0.00042565, "MEAN_MOTION_DDOT": 0}, "tle": {"line1": "1 31046U 99025BEQ 25340.81795021  .00042565  00000+0  80613-2 0  9997", "line2": "2 31046  98.9680  99.9876 0047521 121.9334 347.6507 14.63391802965566"}}, "geometry": {"type": "Point", "coordinates": [105.70358261273726, -25.179929560530052]}}, {"type": "Feature", "properties": {"norad_id": 31047, "name": "FENGYUN 1C DEB", "group": "fengyun-1c-debris", "lat": -47.61721261200206, "lon": 150.0563983587426, "alt_km": 838.5055937939433, "timestamp": "2025-12-08T03:50:07.277304+00:00", "meta": {"OBJECT_NAME": "FENGYUN 1C DEB", "OBJECT_ID": "1999-025BER", "EPOCH": "2025-12-04T19:30:53.154144", "MEAN_MOTION": 14.13823721, "ECCENTRICITY": 0.00252394, "INCLINATION": 98.7003, "RA_OF_ASC_NODE": 336.4594, "ARG_OF_PERICENTER": 200.6734, "MEAN_ANOMALY": 283.0416, "EPHEMERIS_TYPE": 0, "CLASSIFICATION_TYPE": "U", "NORAD_CAT_ID": 31047, "ELEMENT_SET_NO": 999, "REV_AT_EPOCH": 96247, "BSTAR": 0.00069014675, "MEAN_MOTION_DOT": 1.268e-05, "MEAN_MOTION_DDOT": 0}, "tle": {"line1": "1 31047U 99025BER 25338.81311521  .00001268  00000+0  69015-3 0  9993", "line2": "2 31047  98.7003 336.4594 0025239 200.6734 283.0416 14.13823721962475"}}, "geometry": {"type": "Point", "coordinates": [150.0563983587426, -47.61721261200206]}}, {"type": "Feature", "properties": {"norad_id": 31051, "name": "FENGYUN 1C DEB", "group": "fengyun-1c-debris", "lat": 31.894966797338423, "lon": -161.59662576499872, "alt_km": 843.0147546353892, "timestamp": "2025-12-08T03:50:07.277314+00:00", "meta": {"OBJECT_NAME": "FENGYUN 1C DEB", "OBJECT_ID": "1999-025BEV", "EPOCH": "2025-11-29T08:36:57.509280", "MEAN_MOTION": 14.03023318, "ECCENTRICITY": 0.00528722, "INCLINATION": 98.8207, "RA_OF_ASC_NODE": 4.3303, "ARG_OF_PERICENTER": 172.6282, "MEAN_ANOMALY": 187.5674, "EPHEMERIS_TYPE": 0, "CLASSIFICATION_TYPE": "U", "NORAD_CAT_ID": 31051, "ELEMENT_SET_NO": 999, "REV_AT_EPOCH": 63631, "BSTAR": 0.00023865273, "MEAN_MOTION_DOT": 3.33e-06, "MEAN_MOTION_DDOT": 0}, "tle": {"line1": "1 31051U 99025BEV 25333.35899895  .00000333  00000+0  23865-3 0  9992", "line2": "2 31051  98.8207   4.3303 0052872 172.6282 187.5674 14.03023318636313"}}, "geometry": {"type": "Point", "coordinates": [-161.59662576499872, 31.894966797338423]}}, {"type": "Feature", "properties": {"norad_id": 31053, "name": "FENGYUN 1C DEB", "group": "fengyun-1c-debris", "lat": 69.75213040385232, "lon": -50.17711116581214, "alt_km": 744.172090028108, "timestamp": "2025-12-08T03:50:07.277324+00:00", "meta": {"OBJECT_NAME": "FENGYUN 1C DEB", "OBJECT_ID": "1999-025BEX", "EPOCH": "2025-12-06T02:27:28.190304", "MEAN_MOTION": 13.75825285, "ECCENTRICITY": 0.03095304, "INCLINATION": 98.7942, "RA_OF_ASC_NODE": 103.1079, "ARG_OF_PERICENTER": 112.7052, "MEAN_ANOMALY": 250.7132, "EPHEMERIS_TYPE": 0, "CLASSIFICATION_TYPE": "U", "NORAD_CAT_ID": 31053, "ELEMENT_SET_NO": 999, "REV_AT_EPOCH": 93385, "BSTAR": 0.003194987, "MEAN_MOTION_DOT": 4.356e-05, "MEAN_MOTION_DDOT": 0}, "tle": {"line1": "1 31053U 99025BEX 25340.10240961  .00004356  00000+0  31950-2 0  9991", "line2": "2 31053  98.7942 103.1079 0309530 112.7052 250.7132 13.75825285933856"}}, "geometry": {"type": "Point", "coordinates": [-50.17711116581214, 69.75213040385232]}}, {"type": "Feature", "properties": {"norad_id": 31054, "name": "FENGYUN 1C DEB", "group": "fengyun-1c-debris", "lat": 12.02211827365337, "lon": -6.535462697235852, "alt_km": 856.9713804815756, "timestamp": "2025-12-08T03:50:07.277334+00:00", "meta": {"OBJECT_NAME": "FENGYUN 1C DEB", "OBJECT_ID": "1999-025BEY", "EPOCH": "2025-12-07T00:42:03.231648", "MEAN_MOTION": 14.1216473, "ECCENTRICITY": 0.00105144, "INCLINATION": 98.6904, "RA_OF_ASC_NODE": 354.2352, "ARG_OF_PERICENTER": 135.419, "MEAN_ANOMALY": 252.4276, "EPHEMERIS_TYPE": 0, "CLASSIFICATION_TYPE": "U", "NORAD_CAT_ID": 31054, "ELEMENT_SET_NO": 999, "REV_AT_EPOCH": 96683, "BSTAR": 0.00026025951, "MEAN_MOTION_DOT": 4.36e-06, "MEAN_MOTION_DDOT": 0}, "tle": {"line1": "1 31054U 99025BEY 25341.02920407  .00000436  00000+0  26026-3 0  9998", "line2": "2 31054  98.6904 354.2352 0010514 135.4190 252.4276 14.12164730966838"}}, "geometry": {"type": "Point", "coordinates": [-6.535462697235852, 12.02211827365337]}}, {"type": "Feature", "properties": {"norad_id": 31055, "name": "FENGYUN 1C DEB", "group": "fengyun-1c-debris", "lat": 15.186947536585132, "lon": -164.11336990466, "alt_km": 867.7782339231517, "timestamp": "2025-12-08T03:50:07.277344+00:00", "meta": {"OBJECT_NAME": "FENGYUN 1C DEB", "OBJECT_ID": "1999-025BEZ", "EPOCH": "2025-12-06T14:19:05.127168", "MEAN_MOTION": 14.10365736, "ECCENTRICITY": 0.00239741, "INCLINATION": 98.7604, "RA_OF_ASC_NODE": 11.9649, "ARG_OF_PERICENTER": 290.0605, "MEAN_ANOMALY": 222.1515, "EPHEMERIS_TYPE": 0, "CLASSIFICATION_TYPE": "U", "NORAD_CAT_ID": 31055, "ELEMENT_SET_NO": 999, "REV_AT_EPOCH": 96035, "BSTAR": 0.00054074371, "MEAN_MOTION_DOT": 9.2e-06, "MEAN_MOTION_DDOT": 0}, "tle": {"line1": "1 31055U 99025BEZ 25340.59658712  .00000920  00000+0  54074-3 0  9999", "line2": "2 31055  98.7604  11.9649 0023974 290.0605 222.1515 14.10365736960354"}}, "geometry": {"type": "Point", "coordinates": [-164.11336990466, 15.186947536585132]}}, {"type": "Feature", "properties": {"norad_id": 31056, "name": "FENGYUN 1C DEB", "group": "fengyun-1c-debris", "lat": 62.04411988845655, "lon": -51.84748737810459, "alt_km": 831.3678385074181, "timestamp": "2025-12-08T03:50:07.277354+00:00", "meta": {"OBJECT_NAME": "FENGYUN 1C DEB", "OBJECT_ID": "1999-025BFA", "EPOCH": "2025-12-03T10:31:26.895936", "MEAN_MOTION": 14.14283138, "ECCENTRICITY": 0.0026031, "INCLINATION": 98.6671, "RA_OF_ASC_NODE": 320.2748, "ARG_OF_PERICENTER": 9.4767, "MEAN_ANOMALY": 148.9014, "EPHEMERIS_TYPE": 0, "CLASSIFICATION_TYPE": "U", "NORAD_CAT_ID": 31056, "ELEMENT_SET_NO": 999, "REV_AT_EPOCH": 96686, "BSTAR": 0.0005329074, "MEAN_MOTION_DOT": 9.78e-06, "MEAN_MOTION_DDOT": 0}, "tle": {"line1": "1 31056U 99025BFA 25337.43850574  .00000978  00000+0  53291-3 0  9992", "line2": "2 31056  98.6671 320.2748 0026031   9.4767 148.9014 14.14283138966862"}}, "geometry": {"type": "Point", "coordinates": [-51.84748737810459, 62.04411988845655]}}, {"type": "Feature", "properties": {"norad_id": 31057, "name": "FENGYUN 1C DEB", "group": "fengyun-1c-debris", "lat": -39.44274597142241, "lon": 28.611910042591628, "alt_km": 579.2817689582571, "timestamp": "2025-12-08T03:50:07.277364+00:00", "meta": {"OBJECT_NAME": "FENGYUN 1C DEB", "OBJECT_ID": "1999-025BFB", "EPOCH": "2025-11-15T08:50:16.083744", "MEAN_MOTION": 14.78766925, "ECCENTRICITY": 0.01394535, "INCLINATION": 99.2623, "RA_OF_ASC_NODE": 354.6749, "ARG_OF_PERICENTER": 337.6801, "MEAN_ANOMALY": 21.8374, "EPHEMERIS_TYPE": 0, "CLASSIFICATION_TYPE": "U", "NORAD_CAT_ID": 31057, "ELEMENT_SET_NO": 999, "REV_AT_EPOCH": 61548, "BSTAR": 0.0011048389, "MEAN_MOTION_DOT": 9.496e-05, "MEAN_MOTION_DDOT": 0}, "tle": {"line1": "1 31057U 99025BFB 25319.36824171  .00009496  00000+0  11048-2 0  9996", "line2": "2 31057  99.2623 354.6749 0139453 337.6801  21.8374 14.78766925615484"}}, "geometry": {"type": "Point", "coordinates": [28.611910042591628, -39.44274597142241]}}]}